{
"type": "FeatureCollection",
"name": "Public facilities",
"crs": { "type": "name", "properties": { "name": "urn:ogc:def:crs:EPSG::3857" } },
"features": [
{ "type": "Feature", "properties": { "amenity": "Court house", "email": null, "phone": "+381 11 6352900", "operator:website": "http://pkap.sud.rs", "opening_hours": "Mo-Fr 08:00-15:00; PH off", "addr:street": "Тимочка", "addr:housenumber": "15", "layer": "amenity_public_building_amenity_townhall", "path": "Point?crs=EPSG:4326&field=full_id:string(0,0)&field=osm_id:string(0,0)&field=osm_type:string(0,0)&field=amenity:string(0,0)&field=lgbtq:string(0,0)&field=website:string(0,0)&field=name%3Aen:string(0,0)&field=email:string(0,0)&field=addr%3Apostcode:string(0,0)&field=addr%3Acity:string(0,0)&field=ref:string(0,0)&field=phone:string(0,0)&field=operator%3Awikipedia:string(0,0)&field=operator%3Awikidata:string(0,0)&field=operator%3Awebsite:string(0,0)&field=operator%3Atype:string(0,0)&field=operator:string(0,0)&field=opening_hours:string(0,0)&field=name%3Asr-Latn:string(0,0)&field=name%3Asr:string(0,0)&field=name:string(0,0)&field=addr%3Astreet:string(0,0)&field=addr%3Apak:string(0,0)&field=addr%3Ahousenumber:string(0,0)&uid={27125e32-ba61-48c6-8a31-c5dd1174a3b3}", "id": 1, "Name": "Prekršajni apelacioni sud" }, "geometry": { "type": "MultiPoint", "coordinates": [ [ 2280246.897955997847021, 5589552.061042460612953 ] ] } },
{ "type": "Feature", "properties": { "amenity": "Police", "email": null, "phone": "+381 11 3440643", "operator:website": "http://mup.gov.rs/wps/portal/sr/", "opening_hours": "Mo-Fr 08:00-15:00; PH off", "addr:street": "Радослава Грујића", "addr:housenumber": "14", "layer": "amenity_public_building_amenity_townhall", "path": "Point?crs=EPSG:4326&field=full_id:string(0,0)&field=osm_id:string(0,0)&field=osm_type:string(0,0)&field=amenity:string(0,0)&field=lgbtq:string(0,0)&field=website:string(0,0)&field=name%3Aen:string(0,0)&field=email:string(0,0)&field=addr%3Apostcode:string(0,0)&field=addr%3Acity:string(0,0)&field=ref:string(0,0)&field=phone:string(0,0)&field=operator%3Awikipedia:string(0,0)&field=operator%3Awikidata:string(0,0)&field=operator%3Awebsite:string(0,0)&field=operator%3Atype:string(0,0)&field=operator:string(0,0)&field=opening_hours:string(0,0)&field=name%3Asr-Latn:string(0,0)&field=name%3Asr:string(0,0)&field=name:string(0,0)&field=addr%3Astreet:string(0,0)&field=addr%3Apak:string(0,0)&field=addr%3Ahousenumber:string(0,0)&uid={27125e32-ba61-48c6-8a31-c5dd1174a3b3}", "id": 2, "Name": "Policijska stanica Vračar" }, "geometry": { "type": "MultiPoint", "coordinates": [ [ 2279853.817702057771385, 5590104.664944305084646 ] ] } },
{ "type": "Feature", "properties": { "amenity": "Post office", "email": null, "phone": "+381 11 3210-091", "operator:website": "https://posta.rs/", "opening_hours": "Mo-Fr 08:00-20:00; Sa 08:00-15:00; PH off", "addr:street": "Булевар краља Александра", "addr:housenumber": "84", "layer": "amenity_public_building_amenity_townhall", "path": "Point?crs=EPSG:4326&field=full_id:string(0,0)&field=osm_id:string(0,0)&field=osm_type:string(0,0)&field=amenity:string(0,0)&field=lgbtq:string(0,0)&field=website:string(0,0)&field=name%3Aen:string(0,0)&field=email:string(0,0)&field=addr%3Apostcode:string(0,0)&field=addr%3Acity:string(0,0)&field=ref:string(0,0)&field=phone:string(0,0)&field=operator%3Awikipedia:string(0,0)&field=operator%3Awikidata:string(0,0)&field=operator%3Awebsite:string(0,0)&field=operator%3Atype:string(0,0)&field=operator:string(0,0)&field=opening_hours:string(0,0)&field=name%3Asr-Latn:string(0,0)&field=name%3Asr:string(0,0)&field=name:string(0,0)&field=addr%3Astreet:string(0,0)&field=addr%3Apak:string(0,0)&field=addr%3Ahousenumber:string(0,0)&uid={27125e32-ba61-48c6-8a31-c5dd1174a3b3}", "id": 3, "Name": "Post office" }, "geometry": { "type": "MultiPoint", "coordinates": [ [ 2279189.262605920433998, 5590941.078847228549421 ] ] } },
{ "type": "Feature", "properties": { "amenity": "Post office", "email": null, "phone": "+381 11 2836-065", "operator:website": "https://posta.rs/", "opening_hours": "Mo-Fr 08:00-19:00; Sa 08:00-15:00; PH off", "addr:street": "Милешевска", "addr:housenumber": "66", "layer": "amenity_public_building_amenity_townhall", "path": "Point?crs=EPSG:4326&field=full_id:string(0,0)&field=osm_id:string(0,0)&field=osm_type:string(0,0)&field=amenity:string(0,0)&field=lgbtq:string(0,0)&field=website:string(0,0)&field=name%3Aen:string(0,0)&field=email:string(0,0)&field=addr%3Apostcode:string(0,0)&field=addr%3Acity:string(0,0)&field=ref:string(0,0)&field=phone:string(0,0)&field=operator%3Awikipedia:string(0,0)&field=operator%3Awikidata:string(0,0)&field=operator%3Awebsite:string(0,0)&field=operator%3Atype:string(0,0)&field=operator:string(0,0)&field=opening_hours:string(0,0)&field=name%3Asr-Latn:string(0,0)&field=name%3Asr:string(0,0)&field=name:string(0,0)&field=addr%3Astreet:string(0,0)&field=addr%3Apak:string(0,0)&field=addr%3Ahousenumber:string(0,0)&uid={27125e32-ba61-48c6-8a31-c5dd1174a3b3}", "id": 4, "Name": "Post office" }, "geometry": { "type": "MultiPoint", "coordinates": [ [ 2280543.297232184093446, 5589707.382864151149988 ] ] } },
{ "type": "Feature", "properties": { "amenity": "Court house", "email": null, "phone": "+381 11 6354590", "operator:website": "https://prvo.os.jt.rs", "opening_hours": "Mo-Fr 08:00-15:00; PH off", "addr:street": "Катанићева", "addr:housenumber": "15", "layer": "amenity_public_building_amenity_townhall", "path": "Point?crs=EPSG:4326&field=full_id:string(0,0)&field=osm_id:string(0,0)&field=osm_type:string(0,0)&field=amenity:string(0,0)&field=lgbtq:string(0,0)&field=website:string(0,0)&field=name%3Aen:string(0,0)&field=email:string(0,0)&field=addr%3Apostcode:string(0,0)&field=addr%3Acity:string(0,0)&field=ref:string(0,0)&field=phone:string(0,0)&field=operator%3Awikipedia:string(0,0)&field=operator%3Awikidata:string(0,0)&field=operator%3Awebsite:string(0,0)&field=operator%3Atype:string(0,0)&field=operator:string(0,0)&field=opening_hours:string(0,0)&field=name%3Asr-Latn:string(0,0)&field=name%3Asr:string(0,0)&field=name:string(0,0)&field=addr%3Astreet:string(0,0)&field=addr%3Apak:string(0,0)&field=addr%3Ahousenumber:string(0,0)&uid={27125e32-ba61-48c6-8a31-c5dd1174a3b3}", "id": 5, "Name": "Prvo osnovno javno tužilaštvo u Beogradu" }, "geometry": { "type": "MultiPoint", "coordinates": [ [ 2278690.918641485739499, 5589932.314795794896781 ] ] } },
{ "type": "Feature", "properties": { "amenity": "Court house", "email": null, "phone": "+381 11 6354553", "operator:website": "https://drugi.os.sud.rs", "opening_hours": "Mo-Fr 08:00-15:00; PH off", "addr:street": "Катанићева", "addr:housenumber": "15", "layer": "amenity_public_building_amenity_townhall", "path": "Point?crs=EPSG:4326&field=full_id:string(0,0)&field=osm_id:string(0,0)&field=osm_type:string(0,0)&field=amenity:string(0,0)&field=lgbtq:string(0,0)&field=website:string(0,0)&field=name%3Aen:string(0,0)&field=email:string(0,0)&field=addr%3Apostcode:string(0,0)&field=addr%3Acity:string(0,0)&field=ref:string(0,0)&field=phone:string(0,0)&field=operator%3Awikipedia:string(0,0)&field=operator%3Awikidata:string(0,0)&field=operator%3Awebsite:string(0,0)&field=operator%3Atype:string(0,0)&field=operator:string(0,0)&field=opening_hours:string(0,0)&field=name%3Asr-Latn:string(0,0)&field=name%3Asr:string(0,0)&field=name:string(0,0)&field=addr%3Astreet:string(0,0)&field=addr%3Apak:string(0,0)&field=addr%3Ahousenumber:string(0,0)&uid={27125e32-ba61-48c6-8a31-c5dd1174a3b3}", "id": 6, "Name": "Drugi osnovni sud" }, "geometry": { "type": "MultiPoint", "coordinates": [ [ 2278685.831340757198632, 5589947.814565629698336 ] ] } },
{ "type": "Feature", "properties": { "amenity": "Town hall", "email": null, "phone": "+381 11 3081445", "operator:website": "https://vracar.org.rs/", "opening_hours": "Mo-Fr 07:30-17:00", "addr:street": "Његошева", "addr:housenumber": "77", "layer": "amenity_public_building_amenity_townhall", "path": "Point?crs=EPSG:4326&field=full_id:string(0,0)&field=osm_id:string(0,0)&field=osm_type:string(0,0)&field=amenity:string(0,0)&field=lgbtq:string(0,0)&field=website:string(0,0)&field=name%3Aen:string(0,0)&field=email:string(0,0)&field=addr%3Apostcode:string(0,0)&field=addr%3Acity:string(0,0)&field=ref:string(0,0)&field=phone:string(0,0)&field=operator%3Awikipedia:string(0,0)&field=operator%3Awikidata:string(0,0)&field=operator%3Awebsite:string(0,0)&field=operator%3Atype:string(0,0)&field=operator:string(0,0)&field=opening_hours:string(0,0)&field=name%3Asr-Latn:string(0,0)&field=name%3Asr:string(0,0)&field=name:string(0,0)&field=addr%3Astreet:string(0,0)&field=addr%3Apak:string(0,0)&field=addr%3Ahousenumber:string(0,0)&uid={27125e32-ba61-48c6-8a31-c5dd1174a3b3}", "id": 7, "Name": "Gradska uprava Vračar" }, "geometry": { "type": "MultiPoint", "coordinates": [ [ 2279215.578533543739468, 5590171.748412552289665 ] ] } },
{ "type": "Feature", "properties": { "amenity": "Post office", "email": null, "phone": "+381 11 3210-118", "operator:website": "https://posta.rs/", "opening_hours": "Mo-Fr 08:00-19:00; Sa 08:00-15:00; PH off", "addr:street": "Максима Горког", "addr:housenumber": "2", "layer": "amenity_public_building_amenity_townhall", "path": "Point?crs=EPSG:4326&field=full_id:string(0,0)&field=osm_id:string(0,0)&field=osm_type:string(0,0)&field=amenity:string(0,0)&field=lgbtq:string(0,0)&field=website:string(0,0)&field=name%3Aen:string(0,0)&field=email:string(0,0)&field=addr%3Apostcode:string(0,0)&field=addr%3Acity:string(0,0)&field=ref:string(0,0)&field=phone:string(0,0)&field=operator%3Awikipedia:string(0,0)&field=operator%3Awikidata:string(0,0)&field=operator%3Awebsite:string(0,0)&field=operator%3Atype:string(0,0)&field=operator:string(0,0)&field=opening_hours:string(0,0)&field=name%3Asr-Latn:string(0,0)&field=name%3Asr:string(0,0)&field=name:string(0,0)&field=addr%3Astreet:string(0,0)&field=addr%3Apak:string(0,0)&field=addr%3Ahousenumber:string(0,0)&uid={27125e32-ba61-48c6-8a31-c5dd1174a3b3}", "id": 8, "Name": "Post office" }, "geometry": { "type": "MultiPoint", "coordinates": [ [ 2279416.877568745054305, 5589918.038715479895473 ] ] } },
{ "type": "Feature", "properties": { "amenity": "Post office", "email": null, "phone": "+381 11 2436-626", "operator:website": "https://posta.rs/", "opening_hours": "Mo-Fr 08:00-19:00; Sa 08:00-15:00; PH off", "addr:street": "Београдска", "addr:housenumber": "8", "layer": "amenity_public_building_amenity_townhall", "path": "Point?crs=EPSG:4326&field=full_id:string(0,0)&field=osm_id:string(0,0)&field=osm_type:string(0,0)&field=amenity:string(0,0)&field=lgbtq:string(0,0)&field=website:string(0,0)&field=name%3Aen:string(0,0)&field=email:string(0,0)&field=addr%3Apostcode:string(0,0)&field=addr%3Acity:string(0,0)&field=ref:string(0,0)&field=phone:string(0,0)&field=operator%3Awikipedia:string(0,0)&field=operator%3Awikidata:string(0,0)&field=operator%3Awebsite:string(0,0)&field=operator%3Atype:string(0,0)&field=operator:string(0,0)&field=opening_hours:string(0,0)&field=name%3Asr-Latn:string(0,0)&field=name%3Asr:string(0,0)&field=name:string(0,0)&field=addr%3Astreet:string(0,0)&field=addr%3Apak:string(0,0)&field=addr%3Ahousenumber:string(0,0)&uid={27125e32-ba61-48c6-8a31-c5dd1174a3b3}", "id": 9, "Name": "Post office" }, "geometry": { "type": "MultiPoint", "coordinates": [ [ 2278410.99464993737638, 5590637.847911549732089 ] ] } },
{ "type": "Feature", "properties": { "amenity": "Post office", "email": null, "phone": "+381 11 3210-160", "operator:website": "https://posta.rs/", "opening_hours": "Mo-Fr 08:00-19:00; Sa 08:00-14:00; PH off", "addr:street": "Булевар ослобођења", "addr:housenumber": "51", "layer": "amenity_public_building_amenity_townhall", "path": "Point?crs=EPSG:4326&field=full_id:string(0,0)&field=osm_id:string(0,0)&field=osm_type:string(0,0)&field=amenity:string(0,0)&field=lgbtq:string(0,0)&field=website:string(0,0)&field=name%3Aen:string(0,0)&field=email:string(0,0)&field=addr%3Apostcode:string(0,0)&field=addr%3Acity:string(0,0)&field=ref:string(0,0)&field=phone:string(0,0)&field=operator%3Awikipedia:string(0,0)&field=operator%3Awikidata:string(0,0)&field=operator%3Awebsite:string(0,0)&field=operator%3Atype:string(0,0)&field=operator:string(0,0)&field=opening_hours:string(0,0)&field=name%3Asr-Latn:string(0,0)&field=name%3Asr:string(0,0)&field=name:string(0,0)&field=addr%3Astreet:string(0,0)&field=addr%3Apak:string(0,0)&field=addr%3Ahousenumber:string(0,0)&uid={27125e32-ba61-48c6-8a31-c5dd1174a3b3}", "id": 10, "Name": "Post office" }, "geometry": { "type": "MultiPoint", "coordinates": [ [ 2278332.481013081036508, 5589011.475287462584674 ] ] } },
{ "type": "Feature", "properties": { "amenity": "Court house", "email": null, "phone": "+381 11 6553700", "operator:website": "https://prvi.os.sud.rs", "opening_hours": "Mo-Fr 08:00-15:00; PH off", "addr:street": "Катанићева", "addr:housenumber": "15", "layer": "amenity_public_building_amenity_townhall", "path": "Point?crs=EPSG:4326&field=full_id:string(0,0)&field=osm_id:string(0,0)&field=osm_type:string(0,0)&field=amenity:string(0,0)&field=lgbtq:string(0,0)&field=website:string(0,0)&field=name%3Aen:string(0,0)&field=email:string(0,0)&field=addr%3Apostcode:string(0,0)&field=addr%3Acity:string(0,0)&field=ref:string(0,0)&field=phone:string(0,0)&field=operator%3Awikipedia:string(0,0)&field=operator%3Awikidata:string(0,0)&field=operator%3Awebsite:string(0,0)&field=operator%3Atype:string(0,0)&field=operator:string(0,0)&field=opening_hours:string(0,0)&field=name%3Asr-Latn:string(0,0)&field=name%3Asr:string(0,0)&field=name:string(0,0)&field=addr%3Astreet:string(0,0)&field=addr%3Apak:string(0,0)&field=addr%3Ahousenumber:string(0,0)&uid={27125e32-ba61-48c6-8a31-c5dd1174a3b3}", "id": 11, "Name": "Prvi osnovni sud" }, "geometry": { "type": "MultiPoint", "coordinates": [ [ 2278693.634837061166763, 5589922.1019052779302 ] ] } },
{ "type": "Feature", "properties": { "amenity": "Primary school", "email": null, "phone": "+381 11 3236504", "operator:website": "josifmarinkovic.edu.rs", "opening_hours": null, "addr:street": "Крунска", "addr:housenumber": "8", "layer": "Skola_osnovna", "path": "C:/Users/vrace/Downloads/mygeodata (2)/Vracar_kladze_i_skole_1/Skola_osnovna.geojson", "id": 13, "Name": "Muzička škola \"Josif Marinković\"" }, "geometry": { "type": "MultiPoint", "coordinates": [ [ 2278173.973190140444785, 5591449.833653825335205 ] ] } },
{ "type": "Feature", "properties": { "amenity": "Primary school", "email": null, "phone": "011/344-22-68", "operator:website": "www.osjovanmiodragovic.edu.rs", "opening_hours": null, "addr:street": "Војводе Драгомира", "addr:housenumber": "1", "layer": "Skola_osnovna", "path": "C:/Users/vrace/Downloads/mygeodata (2)/Vracar_kladze_i_skole_1/Skola_osnovna.geojson", "id": 14, "Name": "Osnovna škola \"Jovan Miodragović\"" }, "geometry": { "type": "MultiPoint", "coordinates": [ [ 2279714.45683153392747, 5590065.63250963203609 ] ] } },
{ "type": "Feature", "properties": { "amenity": "Primary school", "email": null, "phone": "011/344-46-49", "operator:website": "www.oskraljpetardrugi.nasaskola.rs", "opening_hours": null, "addr:street": "Марулићева", "addr:housenumber": "8", "layer": "Skola_osnovna", "path": "C:/Users/vrace/Downloads/mygeodata (2)/Vracar_kladze_i_skole_1/Skola_osnovna.geojson", "id": 15, "Name": "Osnovna škola \"Kralj Petar II Karađorđević\"" }, "geometry": { "type": "MultiPoint", "coordinates": [ [ 2279897.232303467113525, 5589270.712725760415196 ] ] } },
{ "type": "Feature", "properties": { "amenity": "Primary school", "email": null, "phone": "011/283-66-21", "operator:website": "www.osnhsinisanikolajevic.com", "opening_hours": null, "addr:street": "Тимочка", "addr:housenumber": "24", "layer": "Skola_osnovna", "path": "C:/Users/vrace/Downloads/mygeodata (2)/Vracar_kladze_i_skole_1/Skola_osnovna.geojson", "id": 16, "Name": "Osnovna škola \"NH Siniša Nikolajević\"" }, "geometry": { "type": "MultiPoint", "coordinates": [ [ 2280526.187426449265331, 5589416.319388491101563 ] ] } },
{ "type": "Feature", "properties": { "amenity": "Primary school", "email": null, "phone": "011/243-36-39", "operator:website": "www.ossvetisavabg.edu.rs", "opening_hours": null, "addr:street": "Avalska", "addr:housenumber": "8", "layer": "Skola_osnovna", "path": "C:/Users/vrace/Downloads/mygeodata (2)/Vracar_kladze_i_skole_1/Skola_osnovna.geojson", "id": 17, "Name": "Osnovna škola \"Sveti Sava\"" }, "geometry": { "type": "MultiPoint", "coordinates": [ [ 2278696.384428483899683, 5590069.69576568249613 ] ] } },
{ "type": "Feature", "properties": { "amenity": "Primary school", "email": null, "phone": "011/364-01-66", "operator:website": "os-ribnikar.edu.rs", "opening_hours": null, "addr:street": "Краља Милутина", "addr:housenumber": "10", "layer": "Skola_osnovna", "path": "C:/Users/vrace/Downloads/mygeodata (2)/Vracar_kladze_i_skole_1/Skola_osnovna.geojson", "id": 18, "Name": "Osnovna škola \"Vladislav Ribnikar\"" }, "geometry": { "type": "MultiPoint", "coordinates": [ [ 2278340.473752520047128, 5590847.913524555042386 ] ] } },
{ "type": "Feature", "properties": { "amenity": "Primary school", "email": null, "phone": "011/243-30-25", "operator:website": "ossmarkovic.edu.rs", "opening_hours": null, "addr:street": "Хаџи Милентијева", "addr:housenumber": "62", "layer": "Skola_osnovna", "path": "C:/Users/vrace/Downloads/mygeodata (2)/Vracar_kladze_i_skole_1/Skola_osnovna.geojson", "id": 19, "Name": "Osnovna škola \"Svetozar Marković\"" }, "geometry": { "type": "MultiPoint", "coordinates": [ [ 2279160.163691027089953, 5589153.501220621168613 ] ] } },
{ "type": "Feature", "properties": { "amenity": "Primary school", "email": null, "phone": "011/283-68-38", "operator:website": "www.osdugalic.edu.rs", "opening_hours": null, "addr:street": "Ђердапска", "addr:housenumber": "19", "layer": "Skola_osnovna", "path": "C:/Users/vrace/Downloads/mygeodata (2)/Vracar_kladze_i_skole_1/Skola_osnovna.geojson", "id": 20, "Name": "Specijalna osnovna škola \"Dušan Dugalić\"" }, "geometry": { "type": "MultiPoint", "coordinates": [ [ 2280461.020996538922191, 5588950.455331180244684 ] ] } },
{ "type": "Feature", "properties": { "amenity": "Secondary school", "email": null, "phone": "011/3640-942", "operator:website": "www.trecagimnazija.edu.rs", "opening_hours": null, "addr:street": "Његошева", "addr:housenumber": "15", "layer": "Skola_srednja", "path": "C:/Users/vrace/Downloads/mygeodata (2)/Vracar_kladze_i_skole_1/Skola_srednja.geojson", "id": 21, "Name": "III beogradska gimnazija" }, "geometry": { "type": "MultiPoint", "coordinates": [ [ 2278347.130658069625497, 5590917.387338781729341 ] ] } },
{ "type": "Feature", "properties": { "amenity": "Secondary school", "email": null, "phone": "011/3086-920", "operator:website": "www.cetrnaestgim.edu.rs", "opening_hours": "", "addr:street": "Хаџи-Проданова", "addr:housenumber": "5", "layer": "Skola_srednja", "path": "C:/Users/vrace/Downloads/mygeodata (2)/Vracar_kladze_i_skole_1/Skola_srednja.geojson", "id": 22, "Name": "XIV beogradska gimnazija" }, "geometry": { "type": "MultiPoint", "coordinates": [ [ 2279309.632371315266937, 5590593.055254773236811 ] ] } },
{ "type": "Feature", "properties": { "amenity": "Arhitektonska tehnička škola", "email": null, "phone": null, "operator:website": null, "opening_hours": null, "addr:street": null, "addr:housenumber": null, "layer": null, "path": null, "id": null, "Name": null }, "geometry": null },
{ "type": "Feature", "properties": { "amenity": "Secondary school", "email": null, "phone": "011/2458-626", "operator:website": "www.tehnickaskolagsp.edu.rs", "opening_hours": "", "addr:street": "Радослава Грујића", "addr:housenumber": "2", "layer": "Skola_srednja", "path": "C:/Users/vrace/Downloads/mygeodata (2)/Vracar_kladze_i_skole_1/Skola_srednja.geojson", "id": 24, "Name": "Tehnička škola GSP" }, "geometry": { "type": "MultiPoint", "coordinates": [ [ 2279800.506797917187214, 5589799.077484370209277 ] ] } },
{ "type": "Feature", "properties": { "amenity": "Secondary school", "email": null, "phone": "011/2455-953", "operator:website": "www.slavenski.edu.rs", "opening_hours": "", "addr:street": "Радослава Грујића", "addr:housenumber": "2", "layer": "Skola_srednja", "path": "C:/Users/vrace/Downloads/mygeodata (2)/Vracar_kladze_i_skole_1/Skola_srednja.geojson", "id": 25, "Name": "Muzička škola \"Josip Slavenski\"" }, "geometry": { "type": "MultiPoint", "coordinates": [ [ 2279794.495545414276421, 5589864.73108930978924 ] ] } },
{ "type": "Feature", "properties": { "amenity": "Secondary school", "email": null, "phone": "011/241-28-94", "operator:website": "www.arhitektonska-skola.wix.com", "opening_hours": null, "addr:street": "Војислава Илића", "addr:housenumber": "78", "layer": "Skola_srednja", "path": "C:/Users/vrace/Downloads/mygeodata (2)/Vracar_kladze_i_skole_1/Skola_srednja.geojson", "id": 26, "Name": "Arhitektonska tehnička škola" }, "geometry": { "type": "MultiPoint", "coordinates": [ [ 2281690.834203026723117, 5588828.149988801218569 ] ] } },
{ "type": "Feature", "properties": { "amenity": "Secondary school", "email": null, "phone": "+381 60 3070877", "operator:website": "https://itgimnazija.edu.rs/", "opening_hours": null, "addr:street": "Макензијева", "addr:housenumber": "53", "layer": "Skola_srednja", "path": "C:/Users/vrace/Downloads/mygeodata (2)/Vracar_kladze_i_skole_1/Skola_srednja.geojson", "id": 27, "Name": "Srednja medicinska i IT gimnazija" }, "geometry": { "type": "MultiPoint", "coordinates": [ [ 2278826.171822799835354, 5590127.930740051902831 ] ] } },
{ "type": "Feature", "properties": { "amenity": "Secondary school", "email": null, "phone": "011 3445365", "operator:website": "http://www.skoladis.edu.rs/srb/", "opening_hours": null, "addr:street": "Интернационалних бригада", "addr:housenumber": "57", "layer": "Skola_srednja", "path": "C:/Users/vrace/Downloads/mygeodata (2)/Vracar_kladze_i_skole_1/Skola_srednja.geojson", "id": 28, "Name": "Obrazovni sistem \"Vladislav Petković Dis\"" }, "geometry": { "type": "MultiPoint", "coordinates": [ [ 2279036.465472857933491, 5589269.002857511863112 ] ] } },
{ "type": "Feature", "properties": { "amenity": "Secondary school", "email": null, "phone": "+381 (0)11 4011 223", "operator:website": "https://www.savremena-gimnazija.edu.rs/", "opening_hours": null, "addr:street": "Шуматовачка", "addr:housenumber": "45", "layer": "Skola_srednja", "path": "C:/Users/vrace/Downloads/mygeodata (2)/Vracar_kladze_i_skole_1/Skola_srednja.geojson", "id": 29, "Name": "Savremena osnovna škola i gimnazija7" }, "geometry": { "type": "MultiPoint", "coordinates": [ [ 2279311.246503931935877, 5589380.443019610829651 ] ] } }
]
}
